[{"OBJECT_NAME":"STARLINK-1470","OBJECT_ID":"2020-038AU","EPOCH":"2026-03-09T14:36:51.476832","MEAN_MOTION":15.2807486,"ECCENTRICITY":0.0002444,"INCLINATION":53.048,"RA_OF_ASC_NODE":174.6971,"ARG_OF_PERICENTER":12.8687,"MEAN_ANOMALY":347.2373,"EPHEMERIS_TYPE":0,"CLASSIFICATION_TYPE":"U","NORAD_CAT_ID":45772,"ELEMENT_SET_NO":999,"REV_AT_EPOCH":31706,"BSTAR":0.0019687,"MEAN_MOTION_DOT":0.00054678,"MEAN_MOTION_DDOT":0},{"OBJECT_NAME":"STARLINK-34769","OBJECT_ID":"2025-167S","EPOCH":"2026-03-09T06:25:26.868576","MEAN_MOTION":15.30202216,"ECCENTRICITY":0.00011525,"INCLINATION":53.1615,"RA_OF_ASC_NODE":28.7328,"ARG_OF_PERICENTER":76.7668,"MEAN_ANOMALY":283.3461,"EPHEMERIS_TYPE":0,"CLASSIFICATION_TYPE":"U","NORAD_CAT_ID":65094,"ELEMENT_SET_NO":999,"REV_AT_EPOCH":3341,"BSTAR":0.00067167369,"MEAN_MOTION_DOT":0.00019588,"MEAN_MOTION_DDOT":0}]
